[{"OBJECT_NAME":"O3B FM5","OBJECT_ID":"2013-031A","EPOCH":"2026-03-05T11:55:26.652864","MEAN_MOTION":5.00116468,"ECCENTRICITY":0.0003333,"INCLINATION":0.0979,"RA_OF_ASC_NODE":13.7652,"ARG_OF_PERICENTER":321.5725,"MEAN_ANOMALY":24.6406,"EPHEMERIS_TYPE":0,"CLASSIFICATION_TYPE":"U","NORAD_CAT_ID":39188,"ELEMENT_SET_NO":999,"REV_AT_EPOCH":23185,"BSTAR":0,"MEAN_MOTION_DOT":-2.7e-7,"MEAN_MOTION_DDOT":0},{"OBJECT_NAME":"O3B FM4","OBJECT_ID":"2013-031B","EPOCH":"2026-03-05T09:59:11.240448","MEAN_MOTION":5.00115202,"ECCENTRICITY":0.0005086,"INCLINATION":0.0553,"RA_OF_ASC_NODE":345.1362,"ARG_OF_PERICENTER":8.5792,"MEAN_ANOMALY":6.2723,"EPHEMERIS_TYPE":0,"CLASSIFICATION_TYPE":"U","NORAD_CAT_ID":39189,"ELEMENT_SET_NO":999,"REV_AT_EPOCH":23185,"BSTAR":0,"MEAN_MOTION_DOT":-2.7e-7,"MEAN_MOTION_DDOT":0},{"OBJECT_NAME":"O3B FM2","OBJECT_ID":"2013-031C","EPOCH":"2026-03-05T11:33:46.060704","MEAN_MOTION":5.00116009,"ECCENTRICITY":0.0002843,"INCLINATION":0.0563,"RA_OF_ASC_NODE":338.957,"ARG_OF_PERICENTER":1.3994,"MEAN_ANOMALY":19.6268,"EPHEMERIS_TYPE":0,"CLASSIFICATION_TYPE":"U","NORAD_CAT_ID":39190,"ELEMENT_SET_NO":999,"REV_AT_EPOCH":23192,"BSTAR":0,"MEAN_MOTION_DOT":-2.7e-7,"MEAN_MOTION_DDOT":0},{"OBJECT_NAME":"O3B PFM","OBJECT_ID":"2013-031D","EPOCH":"2026-03-05T11:54:05.468832","MEAN_MOTION":5.00115985,"ECCENTRICITY":0.0005139,"INCLINATION":0.0667,"RA_OF_ASC_NODE":7.363,"ARG_OF_PERICENTER":351.6812,"MEAN_ANOMALY":0.9489,"EPHEMERIS_TYPE":0,"CLASSIFICATION_TYPE":"U","NORAD_CAT_ID":39191,"ELEMENT_SET_NO":999,"REV_AT_EPOCH":23148,"BSTAR":0,"MEAN_MOTION_DOT":-2.7e-7,"MEAN_MOTION_DDOT":0},{"OBJECT_NAME":"O3B FM3","OBJECT_ID":"2014-038A","EPOCH":"2026-03-05T13:30:01.723680","MEAN_MOTION":5.0011563,"ECCENTRICITY":6.24e-5,"INCLINATION":0.053,"RA_OF_ASC_NODE":353.4032,"ARG_OF_PERICENTER":56.376,"MEAN_ANOMALY":310.2204,"EPHEMERIS_TYPE":0,"CLASSIFICATION_TYPE":"U","NORAD_CAT_ID":40079,"ELEMENT_SET_NO":999,"REV_AT_EPOCH":20785,"BSTAR":0,"MEAN_MOTION_DOT":-2.7e-7,"MEAN_MOTION_DDOT":0},{"OBJECT_NAME":"O3B FM7","OBJECT_ID":"2014-038B","EPOCH":"2026-03-02T07:26:54.646080","MEAN_MOTION":5.00115622,"ECCENTRICITY":0.00044887,"INCLINATION":0.0588,"RA_OF_ASC_NODE":348.9474,"ARG_OF_PERICENTER":339.4059,"MEAN_ANOMALY":31.6123,"EPHEMERIS_TYPE":0,"CLASSIFICATION_TYPE":"U","NORAD_CAT_ID":40080,"ELEMENT_SET_NO":999,"REV_AT_EPOCH":21253,"BSTAR":0,"MEAN_MOTION_DOT":-2.9e-7,"MEAN_MOTION_DDOT":0},{"OBJECT_NAME":"O3B FM6","OBJECT_ID":"2014-038C","EPOCH":"2026-03-05T08:03:26.513856","MEAN_MOTION":5.00115721,"ECCENTRICITY":0.000266,"INCLINATION":0.0549,"RA_OF_ASC_NODE":351.2781,"ARG_OF_PERICENTER":350.0303,"MEAN_ANOMALY":18.6758,"EPHEMERIS_TYPE":0,"CLASSIFICATION_TYPE":"U","NORAD_CAT_ID":40081,"ELEMENT_SET_NO":999,"REV_AT_EPOCH":21263,"BSTAR":0,"MEAN_MOTION_DOT":-2.7e-7,"MEAN_MOTION_DDOT":0},{"OBJECT_NAME":"O3B FM8","OBJECT_ID":"2014-038D","EPOCH":"2026-03-04T14:08:51.008064","MEAN_MOTION":5.00115977,"ECCENTRICITY":0.0002658,"INCLINATION":0.0558,"RA_OF_ASC_NODE":350.6431,"ARG_OF_PERICENTER":354.8269,"MEAN_ANOMALY":14.516,"EPHEMERIS_TYPE":0,"CLASSIFICATION_TYPE":"U","NORAD_CAT_ID":40082,"ELEMENT_SET_NO":999,"REV_AT_EPOCH":21271,"BSTAR":0,"MEAN_MOTION_DOT":-2.7e-7,"MEAN_MOTION_DDOT":0},{"OBJECT_NAME":"O3B FM10","OBJECT_ID":"2014-083A","EPOCH":"2026-03-05T09:59:11.002848","MEAN_MOTION":5.00115233,"ECCENTRICITY":0.0002685,"INCLINATION":0.0433,"RA_OF_ASC_NODE":347.5129,"ARG_OF_PERICENTER":355.2556,"MEAN_ANOMALY":17.2165,"EPHEMERIS_TYPE":0,"CLASSIFICATION_TYPE":"U","NORAD_CAT_ID":40348,"ELEMENT_SET_NO":999,"REV_AT_EPOCH":20470,"BSTAR":0,"MEAN_MOTION_DOT":-2.7e-7,"MEAN_MOTION_DDOT":0},{"OBJECT_NAME":"O3B FM11","OBJECT_ID":"2014-083B","EPOCH":"2026-03-05T15:05:20.721984","MEAN_MOTION":5.00115614,"ECCENTRICITY":0.000313,"INCLINATION":0.0567,"RA_OF_ASC_NODE":0.4159,"ARG_OF_PERICENTER":332.8931,"MEAN_ANOMALY":26.6692,"EPHEMERIS_TYPE":0,"CLASSIFICATION_TYPE":"U","NORAD_CAT_ID":40349,"ELEMENT_SET_NO":999,"REV_AT_EPOCH":20472,"BSTAR":0,"MEAN_MOTION_DOT":-2.6e-7,"MEAN_MOTION_DDOT":0},{"OBJECT_NAME":"O3B FM12","OBJECT_ID":"2014-083C","EPOCH":"2026-03-03T10:58:05.766816","MEAN_MOTION":5.00115945,"ECCENTRICITY":0.00026432,"INCLINATION":0.056,"RA_OF_ASC_NODE":359.7796,"ARG_OF_PERICENTER":337.6957,"MEAN_ANOMALY":22.5061,"EPHEMERIS_TYPE":0,"CLASSIFICATION_TYPE":"U","NORAD_CAT_ID":40350,"ELEMENT_SET_NO":999,"REV_AT_EPOCH":20463,"BSTAR":0,"MEAN_MOTION_DOT":-2.8e-7,"MEAN_MOTION_DDOT":0},{"OBJECT_NAME":"O3B FM9","OBJECT_ID":"2014-083D","EPOCH":"2026-03-05T11:35:09.233664","MEAN_MOTION":5.00115908,"ECCENTRICITY":0.0002734,"INCLINATION":0.0578,"RA_OF_ASC_NODE":0.7509,"ARG_OF_PERICENTER":342.3112,"MEAN_ANOMALY":16.9229,"EPHEMERIS_TYPE":0,"CLASSIFICATION_TYPE":"U","NORAD_CAT_ID":40351,"ELEMENT_SET_NO":999,"REV_AT_EPOCH":20488,"BSTAR":0,"MEAN_MOTION_DOT":-2.7e-7,"MEAN_MOTION_DDOT":0},{"OBJECT_NAME":"LEO 1 (LEO VANTAGE 1)","OBJECT_ID":"2018-004C","EPOCH":"2026-03-05T16:23:09.745152","MEAN_MOTION":14.67137126,"ECCENTRICITY":0.0353267,"INCLINATION":99.2479,"RA_OF_ASC_NODE":329.4826,"ARG_OF_PERICENTER":37.1668,"MEAN_ANOMALY":325.3434,"EPHEMERIS_TYPE":0,"CLASSIFICATION_TYPE":"U","NORAD_CAT_ID":43113,"ELEMENT_SET_NO":999,"REV_AT_EPOCH":42230,"BSTAR":0.00040296,"MEAN_MOTION_DOT":5.814e-5,"MEAN_MOTION_DDOT":0},{"OBJECT_NAME":"O3B FM15","OBJECT_ID":"2018-024A","EPOCH":"2026-03-05T13:11:17.555136","MEAN_MOTION":5.00115718,"ECCENTRICITY":0.000269,"INCLINATION":0.0485,"RA_OF_ASC_NODE":0.8251,"ARG_OF_PERICENTER":339.6278,"MEAN_ANOMALY":19.531,"EPHEMERIS_TYPE":0,"CLASSIFICATION_TYPE":"U","NORAD_CAT_ID":43231,"ELEMENT_SET_NO":999,"REV_AT_EPOCH":14584,"BSTAR":0,"MEAN_MOTION_DOT":-2.7e-7,"MEAN_MOTION_DDOT":0},{"OBJECT_NAME":"O3B FM16","OBJECT_ID":"2018-024B","EPOCH":"2026-03-05T09:38:52.354176","MEAN_MOTION":5.00115819,"ECCENTRICITY":0.000281,"INCLINATION":0.045,"RA_OF_ASC_NODE":2.7413,"ARG_OF_PERICENTER":340.963,"MEAN_ANOMALY":16.2807,"EPHEMERIS_TYPE":0,"CLASSIFICATION_TYPE":"U","NORAD_CAT_ID":43232,"ELEMENT_SET_NO":999,"REV_AT_EPOCH":14575,"BSTAR":0,"MEAN_MOTION_DOT":-2.7e-7,"MEAN_MOTION_DDOT":0},{"OBJECT_NAME":"O3B FM14","OBJECT_ID":"2018-024C","EPOCH":"2026-03-05T05:49:42.771360","MEAN_MOTION":5.00115662,"ECCENTRICITY":0.0002845,"INCLINATION":0.0434,"RA_OF_ASC_NODE":1.7052,"ARG_OF_PERICENTER":342.9716,"MEAN_ANOMALY":15.3086,"EPHEMERIS_TYPE":0,"CLASSIFICATION_TYPE":"U","NORAD_CAT_ID":43233,"ELEMENT_SET_NO":999,"REV_AT_EPOCH":14575,"BSTAR":0,"MEAN_MOTION_DOT":-2.7e-7,"MEAN_MOTION_DDOT":0},{"OBJECT_NAME":"O3B FM13","OBJECT_ID":"2018-024D","EPOCH":"2026-03-03T02:38:16.342368","MEAN_MOTION":5.00115687,"ECCENTRICITY":0.00042952,"INCLINATION":0.0485,"RA_OF_ASC_NODE":331.6373,"ARG_OF_PERICENTER":331.6147,"MEAN_ANOMALY":56.6997,"EPHEMERIS_TYPE":0,"CLASSIFICATION_TYPE":"U","NORAD_CAT_ID":43234,"ELEMENT_SET_NO":999,"REV_AT_EPOCH":14574,"BSTAR":0,"MEAN_MOTION_DOT":-2.8e-7,"MEAN_MOTION_DDOT":0}]
