O3B FM5                 
1 39188U 13031A   26064.49683626 -.00000027  00000+0  00000+0 0  9997
2 39188   0.0979  13.7652 0003333 321.5725  24.6406  5.00116468231859
O3B FM4                 
1 39189U 13031B   26064.41610232 -.00000027  00000+0  00000+0 0  9993
2 39189   0.0553 345.1362 0005086   8.5792   6.2723  5.00115202231854
O3B FM2                 
1 39190U 13031C   26064.48178311 -.00000027  00000+0  00000+0 0  9999
2 39190   0.0563 338.9570 0002843   1.3994  19.6268  5.00116009231927
O3B PFM                 
1 39191U 13031D   26064.49589663 -.00000027  00000+0  00000+0 0  9997
2 39191   0.0667   7.3630 0005139 351.6812   0.9489  5.00115985231489
O3B FM3                 
1 40079U 14038A   26064.56251995 -.00000027  00000+0  00000+0 0  9994
2 40079   0.0530 353.4032 0000624  56.3760 310.2204  5.00115630207854
O3B FM7                 
1 40080U 14038B   26061.31035470 -.00000029  00000+0  00000+0 0  9996
2 40080   0.0588 348.9474 0004488 339.4059  31.6123  5.00115622212532
O3B FM6                 
1 40081U 14038C   26064.33572354 -.00000027  00000+0  00000+0 0  9997
2 40081   0.0549 351.2781 0002660 350.0303  18.6758  5.00115721212639
O3B FM8                 
1 40082U 14038D   26063.58947926 -.00000027  00000+0  00000+0 0  9995
2 40082   0.0558 350.6431 0002658 354.8269  14.5160  5.00115977212719
O3B FM10                
1 40348U 14083A   26064.41609957 -.00000027  00000+0  00000+0 0  9992
2 40348   0.0433 347.5129 0002685 355.2556  17.2165  5.00115233204709
O3B FM11                
1 40349U 14083B   26064.62871206 -.00000026  00000+0  00000+0 0  9993
2 40349   0.0567   0.4159 0003130 332.8931  26.6692  5.00115614204724
O3B FM12                
1 40350U 14083C   26062.45701119 -.00000028  00000+0  00000+0 0  9991
2 40350   0.0560 359.7796 0002643 337.6957  22.5061  5.00115945204637
O3B FM9                 
1 40351U 14083D   26064.48274576 -.00000027  00000+0  00000+0 0  9998
2 40351   0.0578   0.7509 0002734 342.3112  16.9229  5.00115908204888
LEO 1 (LEO VANTAGE 1)   
1 43113U 18004C   26064.68275168  .00005814  00000+0  40296-3 0  9997
2 43113  99.2479 329.4826 0353267  37.1668 325.3434 14.67137126422308
O3B FM15                
1 43231U 18024A   26064.54950874 -.00000027  00000+0  00000+0 0  9996
2 43231   0.0485   0.8251 0002690 339.6278  19.5310  5.00115718145842
O3B FM16                
1 43232U 18024B   26064.40199484 -.00000027  00000+0  00000+0 0  9994
2 43232   0.0450   2.7413 0002810 340.9630  16.2807  5.00115819145754
O3B FM14                
1 43233U 18024C   26064.24285615 -.00000027  00000+0  00000+0 0  9999
2 43233   0.0434   1.7052 0002845 342.9716  15.3086  5.00115662145755
O3B FM13                
1 43234U 18024D   26062.10991137 -.00000028  00000+0  00000+0 0  9997
2 43234   0.0485 331.6373 0004295 331.6147  56.6997  5.00115687145742
